SWARM A                 
1 39452U 13067B   26194.15347404  .00006535  00000+0  11018-3 0  9992
2 39452  87.3301  46.5870 0003312  94.5103 265.6537 15.51432342710279
SWARM C                 
1 39453U 13067C   26194.15337992  .00006511  00000+0  10977-3 0  9991
2 39453  87.3301  45.1679 0003298  94.6214 265.5424 15.51431707710233
BRITE-CA1 (TORONTO)     
1 40020U 14033L   26194.19620617  .00000545  00000+0  89509-4 0  9999
2 40020  97.9769 322.6494 0078299 192.6738 167.2503 14.72720200646045
OCO 2                   
1 40059U 14035A   26194.11239365  .00000176  00000+0  49010-4 0  9994
2 40059  98.2021 135.0116 0001450  81.1621 278.9741 14.57131301639820
BRITE-PL2 (HEWELIUSZ)   
1 40119U 14049B   26194.01388839  .00000806  00000+0  79660-4 0  9990
2 40119  97.9119 306.2169 0014542  29.3912 330.8123 14.94683999645302
MMS 1                   
1 40482U 15011A   26194.25003471 -.00001417  00000+0  00000+0 0  9992
2 40482  72.5187 348.4341 8305801 167.9929  77.1346  0.28361078  1357
MMS 2                   
1 40483U 15011B   26194.25003471 -.00001418  00000+0  00000+0 0  9994
2 40483  72.5227 348.4331 8308616 167.9985  77.1118  0.28359173  1351
MMS 3                   
1 40484U 15011C   26194.25003471 -.00001417  00000+0  00000+0 0  9994
2 40484  72.5224 348.4450 8306981 168.0035  77.0964  0.28361053  1327
MMS 4                   
1 40485U 15011D   26194.25003471 -.00001417  00000+0  00000+0 0  9995
2 40485  72.5180 348.4284 8306930 168.0133  77.0910  0.28361072  1385
ASTROSAT                
1 40930U 15052A   26192.78050286  .00001187  00000+0  62854-4 0  9990
2 40930   5.9982 338.3312 0007756  22.2669 337.7795 14.82549129583480
DAMPE                   
1 41173U 15078A   26194.18429193  .00000912  00000+0  33152-4 0  9995
2 41173  97.4561 199.7799 0011796 352.8622   7.2449 15.30851022588524
PISAT                   
1 41784U 16059B   26193.95945558  .00000492  00000+0  91268-4 0  9990
2 41784  97.8189 193.3060 0030359 121.6643 238.7531 14.69027406523528
HXMT (HUIYAN)           
1 42758U 17034A   26194.04951128  .00002729  00000+0  13906-3 0  9994
2 42758  43.0152  39.0112 0032503 307.6003  52.1896 15.18678216501597
FLYING LAPTOP           
1 42831U 17042G   26194.18056238  .00001931  00000+0  15400-3 0  9993
2 42831  97.4792 348.7338 0019781  38.9576 321.3069 15.01303935490353
ZHANGHENG 1-01 (CSES-1) 
1 43194U 18015C   26194.19282986  .00004058  00000+0  18792-3 0  9999
2 43194  97.6883   0.3723 0016216 171.7198 188.4307 15.20591987468599
SALSAT                  
1 46495U 20068K   26193.91391395  .00004828  00000+0  16824-3 0  9990
2 46495  97.8853 198.5521 0008922 201.3461 158.7407 15.30153171319292
IXPE                    
1 49954U 21121A   26194.16668980  .00008772  00000+0  46233-3 0  9998
2 49954   0.2293 120.3232 0007272 115.2513  11.4678 15.10477707  5874
