OBJECT_NAME,OBJECT_ID,EPOCH,MEAN_MOTION,ECCENTRICITY,INCLINATION,RA_OF_ASC_NODE,ARG_OF_PERICENTER,MEAN_ANOMALY,EPHEMERIS_TYPE,CLASSIFICATION_TYPE,NORAD_CAT_ID,ELEMENT_SET_NO,REV_AT_EPOCH,BSTAR,MEAN_MOTION_DOT,MEAN_MOTION_DDOT
SWARM A,2013-067B,2026-07-13T03:41:00.157056,15.51432342,.0003312,87.3301,46.5870,94.5103,265.6537,0,U,39452,999,71027,.11018E-3,.6535E-4,0
SWARM C,2013-067C,2026-07-13T03:40:52.025088,15.51431707,.0003298,87.3301,45.1679,94.6214,265.5424,0,U,39453,999,71023,.10977E-3,.6511E-4,0
BRITE-CA1 (TORONTO),2014-033L,2026-07-13T04:42:32.213088,14.72720200,.0078299,97.9769,322.6494,192.6738,167.2503,0,U,40020,999,64604,.89509E-4,.545E-5,0
OCO 2,2014-035A,2026-07-13T02:41:50.811360,14.57131301,.000145,98.2021,135.0116,81.1621,278.9741,0,U,40059,999,63982,.4901E-4,.176E-5,0
BRITE-PL2 (HEWELIUSZ),2014-049B,2026-07-13T00:19:59.956896,14.94683999,.0014542,97.9119,306.2169,29.3912,330.8123,0,U,40119,999,64530,.7966E-4,.806E-5,0
MMS 1,2015-011A,2026-07-13T06:00:02.998944,0.28361078,.8305801,72.5187,348.4341,167.9929,77.1346,0,U,40482,999,135,0,-.1417E-4,0
MMS 2,2015-011B,2026-07-13T06:00:02.998944,0.28359173,.8308616,72.5227,348.4331,167.9985,77.1118,0,U,40483,999,135,0,-.1418E-4,0
MMS 3,2015-011C,2026-07-13T06:00:02.998944,0.28361053,.8306981,72.5224,348.4450,168.0035,77.0964,0,U,40484,999,132,0,-.1417E-4,0
MMS 4,2015-011D,2026-07-13T06:00:02.998944,0.28361072,.830693,72.5180,348.4284,168.0133,77.0910,0,U,40485,999,138,0,-.1417E-4,0
ASTROSAT,2015-052A,2026-07-11T18:43:55.447104,14.82549129,.00077569,5.9982,338.3312,22.2669,337.7795,0,U,40930,999,58348,.62854136E-4,.1187E-4,0
DAMPE,2015-078A,2026-07-13T04:25:22.822752,15.30851022,.0011796,97.4561,199.7799,352.8622,7.2449,0,U,41173,999,58852,.33152E-4,.912E-5,0
PISAT,2016-059B,2026-07-12T23:01:36.962112,14.69027406,.0030359,97.8189,193.3060,121.6643,238.7531,0,U,41784,999,52352,.91268E-4,.492E-5,0
HXMT (HUIYAN),2017-034A,2026-07-13T01:11:17.774592,15.18678216,.0032503,43.0152,39.0112,307.6003,52.1896,0,U,42758,999,50159,.13906E-3,.2729E-4,0
FLYING LAPTOP,2017-042G,2026-07-13T04:20:00.589632,15.01303935,.0019781,97.4792,348.7338,38.9576,321.3069,0,U,42831,999,49035,.154E-3,.1931E-4,0
ZHANGHENG 1-01 (CSES-1),2018-015C,2026-07-13T04:37:40.499904,15.20591987,.0016216,97.6883,0.3723,171.7198,188.4307,0,U,43194,999,46859,.18792E-3,.4058E-4,0
SALSAT,2020-068K,2026-07-12T21:56:02.165280,15.30153171,.0008922,97.8853,198.5521,201.3461,158.7407,0,U,46495,999,31929,.16824E-3,.4828E-4,0
IXPE,2021-121A,2026-07-13T04:00:01.998720,15.10477707,.0007272,0.2293,120.3232,115.2513,11.4678,0,U,49954,999,587,.46233E-3,.8772E-4,0
